NORAD_CAT_ID,OBJECT_NAME,OBJECT_TYPE,EPOCH,MEAN_MOTION,ECCENTRICITY,INCLINATION,RA_OF_ASC_NODE,ARG_OF_PERICENTER,MEAN_ANOMALY,BSTAR,MEAN_MOTION_DOT,MEAN_MOTION_DDOT,TLE_LINE0,TLE_LINE1,TLE_LINE2,SEMIMAJOR_AXIS,PERIOD,APOGEE,PERIGEE,DECAYED
50808.0,STARLINK-3355,PAYLOAD,2022-06-22 01:51:38,15.08843103,0.0002583999999999,53.2157,129.1895,52.9824,307.1404,2.3631e-05,8.8e-07,0.0,0 STARLINK-3355,1 50808U 22001F   22173.07752618  .00000088  00000-0  23631-4 0  9992,2 50808  53.2157 129.1895 0002584  52.9824 307.1404 15.08843103 26998,6917.871,95.437,541.523,537.948,0.0
50808.0,STARLINK-3355,PAYLOAD,2022-06-22 14:34:42,15.08845154,0.0002646,53.2158,126.8109,53.5382,306.5853,8.662200000000001e-05,1.091e-05,0.0,0 STARLINK-3355,1 50808U 22001F   22173.60744208  .00001091  00000-0  86622-4 0  9991,2 50808  53.2158 126.8109 0002646  53.5382 306.5853 15.08845154 25826,6917.865,95.437,541.56,537.899,0.0
50808.0,STARLINK-3355,PAYLOAD,2022-06-23 03:17:48,15.08835274,0.0002607,53.2178,124.4312,58.6769,301.4478,3.078e-05,2.01e-06,0.0,0 STARLINK-3355,1 50808U 22001F   22174.13737075  .00000201  00000-0  30780-4 0  9990,2 50808  53.2178 124.4312 0002607  58.6769 301.4478 15.08835274 27157,6917.895,95.438,541.563,537.956,0.0
50808.0,STARLINK-3355,PAYLOAD,2022-06-24 06:19:22,15.08833885,0.0002885,53.2174,119.3766,60.2859,299.842,-5.0199e-06,-3.68e-06,0.0,0 STARLINK-3355,1 50808U 22001F   22175.26345287 -.00000368  00000-0 -50199-5 0  9998,2 50808  53.2174 119.3766 0002885  60.2859 299.8420 15.08833885 26079,6917.899,95.438,541.76,537.768,0.0
50808.0,STARLINK-3355,PAYLOAD,2022-06-24 19:02:26,15.08840906,0.0002572,53.2171,116.9974,55.9441,304.1795,0.00012431,1.691e-05,0.0,0 STARLINK-3355,1 50808U 22001F   22175.79336230  .00001691  00000-0  12431-3 0  9997,2 50808  53.2171 116.9974 0002572  55.9441 304.1795 15.08840906 27406,6917.878000000002,95.437,541.5219999999998,537.9630000000002,0.0
50808.0,STARLINK-3355,PAYLOAD,2022-06-25 02:59:22,15.08833361,0.0002681,53.2171,115.5109,58.5623,301.5631,4.6172e-05,4.46e-06,0.0,0 STARLINK-3355,1 50808U 22001F   22176.12456863  .00000446  00000-0  46172-4 0  9997,2 50808  53.2171 115.5109 0002681  58.5623 301.5631 15.08833361 27455,6917.901,95.438,541.62,537.911,0.0
50808.0,STARLINK-3355,PAYLOAD,2022-06-25 12:31:41,15.08837022,0.000269,53.2175,113.7269,58.4028,301.7227,-1.2138e-05,-4.82e-06,0.0,0 STARLINK-3355,1 50808U 22001F   22176.52200838 -.00000482  00000-0 -12138-4 0  9997,2 50808  53.2175 113.7269 0002690  58.4028 301.7227 15.08837022 26263,6917.889,95.438,541.615,537.894,0.0
50808.0,STARLINK-3355,PAYLOAD,2022-06-25 18:53:14,15.08833324,0.0002627,53.217,112.5376,58.3752,301.7496,4.9277e-05,4.96e-06,0.0,0 STARLINK-3355,1 50808U 22001F   22176.78696813  .00000496  00000-0  49277-4 0  9994,2 50808  53.2170 112.5376 0002627  58.3752 301.7496 15.08833324 26301,6917.901,95.438,541.5830000000002,537.948,0.0
50808.0,STARLINK-3355,PAYLOAD,2022-06-26 04:25:33,15.08829878,0.000264,53.2171,110.7538,59.7183,300.407,9.2618e-06,-1.41e-06,0.0,0 STARLINK-3355,1 50808U 22001F   22177.18441407 -.00000141  00000-0  92618-5 0  9992,2 50808  53.2171 110.7538 0002640  59.7183 300.4070 15.08829878 27618,6917.911,95.438,541.6030000000002,537.95,0.0
50808.0,STARLINK-3355,PAYLOAD,2022-06-26 12:22:28,15.08832247,0.0002657,53.2172,109.2666,58.9436,301.1816,3.5572e-05,2.78e-06,0.0,0 STARLINK-3355,1 50808U 22001F   22177.51561310  .00000278  00000-0  35572-4 0  9990,2 50808  53.2172 109.2666 0002657  58.9436 301.1816 15.08832247 26411,6917.904,95.438,541.607,537.931,0.0
50808.0,STARLINK-3355,PAYLOAD,2022-06-26 18:44:00,15.08843624,0.0002634999999999,53.2169,108.0764,61.089,299.0366,-1.7149e-05,-5.61e-06,0.0,0 STARLINK-3355,1 50808U 22001F   22177.78056691 -.00000561  00000-0 -17149-4 0  9997,2 50808  53.2169 108.0764 0002635  61.0890 299.0366 15.08843624 27707,6917.869000000002,95.437,541.557,537.911,0.0
50808.0,STARLINK-3355,PAYLOAD,2022-06-27 02:40:55,15.08869146,0.0002493,53.2172,106.5898,58.5802,301.5434,-0.00029094,-4.92e-05,0.0,0 STARLINK-3355,1 50808U 22001F   22178.11175692 -.00004920  00000-0 -29094-3 0  9992,2 50808  53.2172 106.5898 0002493  58.5802 301.5434 15.08869146 27755,6917.791,95.436,541.381,537.932,0.0
50808.0,STARLINK-3355,PAYLOAD,2022-06-27 04:16:19,15.08851987,0.0002669,53.2172,106.2925,64.169,295.9577,-2.2228e-05,-6.42e-06,0.0,0 STARLINK-3355,1 50808U 22001F   22178.17800063 -.00000642  00000-0 -22228-4 0  9995,2 50808  53.2172 106.2925 0002669  64.1690 295.9577 15.08851987 27765,6917.844,95.437,541.555,537.862,0.0
50808.0,STARLINK-3355,PAYLOAD,2022-06-28 02:31:45,15.08819719,0.0002462,53.2171,102.1284,56.6012,303.5215,-1.0242e-05,-4.51e-06,0.0,0 STARLINK-3355,1 50808U 22001F   22179.10538560 -.00000451  00000-0 -10242-4 0  9990,2 50808  53.2171 102.1284 0002462  56.6012 303.5215 15.08819719 27900,6917.941999999999,95.439,541.511,538.104,0.0
50808.0,STARLINK-3355,PAYLOAD,2022-06-28 12:04:04,15.0882404,0.0002485,53.2174,100.345,57.0845,303.0386,-2.0628000000000006e-05,-6.17e-06,0.0,0 STARLINK-3355,1 50808U 22001F   22179.50282755 -.00000617  00000-0 -20628-4 0  9999,2 50808  53.2174 100.3450 0002485  57.0845 303.0386 15.08824040 26717,6917.929,95.439,541.513,538.075,0.0
50808.0,STARLINK-3355,PAYLOAD,2022-06-29 03:57:55,15.0883298,0.0002403,53.217,97.3712,56.6805,303.4417,-3.4229e-05,-8.33e-06,0.0,0 STARLINK-3355,1 50808U 22001F   22180.16522672 -.00000833  00000-0 -34229-4 0  9990,2 50808  53.2170  97.3712 0002403  56.6805 303.4417 15.08832980 28061,6917.901999999999,95.438,541.429,538.104,0.0
50808.0,STARLINK-3355,PAYLOAD,2022-06-29 11:54:51,15.08835695,0.0002356,53.217,95.8845,59.2253,300.897,-1.7326e-05,-5.64e-06,0.0,0 STARLINK-3355,1 50808U 22001F   22180.49642568 -.00000564  00000-0 -17326-4 0  9993,2 50808  53.2170  95.8845 0002356  59.2253 300.8970 15.08835695 26861,6917.894,95.438,541.388,538.129,0.0
50808.0,STARLINK-3355,PAYLOAD,2022-06-30 03:48:42,15.08832131,0.0002454,53.2173,92.911,57.519,302.6039,0.00015095,2.114e-05,0.0,0 STARLINK-3355,1 50808U 22001F   22181.15882682  .00002114  00000-0  15095-3 0  9991,2 50808  53.2173  92.9110 0002454  57.5190 302.6039 15.08832131 26966,6917.904,95.438,541.467,538.072,0.0
50808.0,STARLINK-3355,PAYLOAD,2022-07-01 03:39:29,15.08845609,0.00025,53.2173,88.4503,59.678,300.446,0.00014804,2.069e-05,0.0,0 STARLINK-3355,1 50808U 22001F   22182.15242031  .00002069  00000-0  14804-3 0  9996,2 50808  53.2173  88.4503 0002500  59.6780 300.4460 15.08845609 27118,6917.863,95.437,541.4580000000002,537.999,0.0
50808.0,STARLINK-3355,PAYLOAD,2022-07-01 21:08:44,15.08837025,0.0002576,53.2176,85.1796,62.5426,297.5828,-7.0735e-06,-4.01e-06,0.0,0 STARLINK-3355,1 50808U 22001F   22182.88106993 -.00000401  00000-0 -70735-5 0  9999,2 50808  53.2176  85.1796 0002576  62.5426 297.5828 15.08837025 27221,6917.889,95.438,541.5369999999998,537.972,0.0
50808.0,STARLINK-3355,PAYLOAD,2022-07-02 00:19:30,15.0883943,0.0002571,53.2176,84.5851,62.0548,298.0704,-3.537e-06,-3.45e-06,0.0,0 STARLINK-3355,1 50808U 22001F   22183.01354831 -.00000345  00000-0 -35370-5 0  9994,2 50808  53.2176  84.5851 0002571  62.0548 298.0704 15.08839430 28492,6917.882,95.438,541.526,537.969,0.0
50808.0,STARLINK-3355,PAYLOAD,2022-07-02 09:51:48,15.08844285,0.0002592,53.2178,82.8012,62.6613,297.4643,3.3011e-05,2.37e-06,0.0,0 STARLINK-3355,1 50808U 22001F   22183.41098341  .00000237  00000-0  33011-4 0  9996,2 50808  53.2178  82.8012 0002592  62.6613 297.4643 15.08844285 27304,6917.8669999999975,95.437,541.525,537.939,0.0
50808.0,STARLINK-3355,PAYLOAD,2022-07-03 03:21:02,15.08857018,0.0002617,53.2178,79.5298,63.227,296.8989,7.2374e-05,8.64e-06,0.0,0 STARLINK-3355,1 50808U 22001F   22184.13960937  .00000864  00000-0  72374-4 0  9996,2 50808  53.2178  79.5298 0002617  63.2270 296.8989 15.08857018 28661,6917.828,95.436,541.504,537.883,0.0
50808.0,STARLINK-3355,PAYLOAD,2022-07-03 09:42:35,15.088459900000002,0.0002788,53.218,78.3405,61.6468,298.4805,-1.4227e-05,-5.15e-06,0.0,0 STARLINK-3355,1 50808U 22001F   22184.40457758 -.00000515  00000-0 -14227-4 0  9996,2 50808  53.2180  78.3405 0002788  61.6468 298.4805 15.08845990 28707,6917.861999999999,95.437,541.656,537.798,0.0
50808.0,STARLINK-3355,PAYLOAD,2022-07-03 20:50:17,15.08845085,0.000251,53.2177,76.2586,64.3686,295.7565,6.0447e-05,6.74e-06,0.0,0 STARLINK-3355,1 50808U 22001F   22184.86825406  .00000674  00000-0  60447-4 0  9994,2 50808  53.2177  76.2586 0002510  64.3686 295.7565 15.08845085 27522,6917.865,95.437,541.466,537.993,0.0
50808.0,STARLINK-3355,PAYLOAD,2022-07-04 01:36:27,15.08836643,0.0002522,53.2178,75.3669,60.6279,299.4964,-5.294199999999998e-06,-3.73e-06,0.0,0 STARLINK-3355,1 50808U 22001F   22185.06698140 -.00000373  00000-0 -52942-5 0  9990,2 50808  53.2178  75.3669 0002522  60.6279 299.4964 15.08836643 28801,6917.891,95.438,541.5,538.011,0.0
50808.0,STARLINK-3355,PAYLOAD,2022-07-04 09:33:23,15.08824333,0.0002504,53.2177,73.8799,62.8193,297.3054,-0.00011895,-2.18e-05,0.0,0 STARLINK-3355,1 50808U 22001F   22185.39819416 -.00002180  00000-0 -11895-3 0  9995,2 50808  53.2177  73.8799 0002504  62.8193 297.3054 15.08824333 28851,6917.928000000001,95.439,541.526,538.061,0.0
50808.0,STARLINK-3355,PAYLOAD,2022-07-04 22:16:29,15.08829217,0.0002438,53.2177,71.5007,65.1945,294.9301,-0.00016719,-2.948e-05,0.0,0 STARLINK-3355,1 50808U 22001F   22185.92811589 -.00002948  00000-0 -16719-3 0  9999,2 50808  53.2177  71.5007 0002438  65.1945 294.9301 15.08829217 27689,6917.913000000001,95.438,541.465,538.092,0.0
50808.0,STARLINK-3355,PAYLOAD,2022-07-05 03:02:38,15.08830593,0.0002456,53.2178,70.6086,64.859,295.2657,-0.00014906,-2.659e-05,0.0,0 STARLINK-3355,1 50808U 22001F   22186.12683594 -.00002659  00000-0 -14906-3 0  9990,2 50808  53.2178  70.6086 0002456  64.8590 295.2657 15.08830593 28968,6917.909000000002,95.438,541.4730000000002,538.075,0.0
